{"type": "FeatureCollection", "features": [ {"type": "Feature", "properties": {"norad_id": 32320, "name": "FENGYUN 1C DEB", "group": "fengyun-1c-debris", "lat": -43.608202944737876, "lon": -156.34482032063414, "alt_km": 795.3335559235766, "timestamp": "2025-12-04T05:42:43.659194+00:00", "meta": {"OBJECT_NAME": "FENGYUN 1C DEB", "OBJECT_ID": "1999-025CXM", "EPOCH": "2025-12-01T19:23:39.723360", "MEAN_MOTION": 14.36057731, "ECCENTRICITY": 0.00558837, "INCLINATION": 100.3751, "RA_OF_ASC_NODE": 190.6853, "ARG_OF_PERICENTER": 78.2143, "MEAN_ANOMALY": 282.5298, "EPHEMERIS_TYPE": 0, "CLASSIFICATION_TYPE": "U", "NORAD_CAT_ID": 32320, "ELEMENT_SET_NO": 999, "REV_AT_EPOCH": 62016, "BSTAR": 0.00080169861, "MEAN_MOTION_DOT": 2.315e-05, "MEAN_MOTION_DDOT": 0}, "tle": {"line1": "1 32320U 99025CXM 25335.80809865  .00002315  00000+0  80170-3 0  9996", "line2": "2 32320 100.3751 190.6853 0055883  78.2143 282.5298 14.36057731620163"}}, "geometry": {"type": "Point", "coordinates": [-156.34482032063414, -43.608202944737876]}}, {"type": "Feature", "properties": {"norad_id": 32322, "name": "FENGYUN 1C DEB", "group": "fengyun-1c-debris", "lat": -72.57558889283592, "lon": -110.15869606327831, "alt_km": 1443.2517777583953, "timestamp": "2025-12-04T05:42:43.659204+00:00", "meta": {"OBJECT_NAME": "FENGYUN 1C DEB", "OBJECT_ID": "1999-025CXP", "EPOCH": "2025-12-03T12:06:49.234464", "MEAN_MOTION": 13.34111165, "ECCENTRICITY": 0.04186245, "INCLINATION": 98.3704, "RA_OF_ASC_NODE": 221.2637, "ARG_OF_PERICENTER": 120.9413, "MEAN_ANOMALY": 243.3562, "EPHEMERIS_TYPE": 0, "CLASSIFICATION_TYPE": "U", "NORAD_CAT_ID": 32322, "ELEMENT_SET_NO": 999, "REV_AT_EPOCH": 60256, "BSTAR": 0.0012700968, "MEAN_MOTION_DOT": 1.007e-05, "MEAN_MOTION_DDOT": 0}, "tle": {"line1": "1 32322U 99025CXP 25337.50473651  .00001007  00000+0  12701-2 0  9998", "line2": "2 32322  98.3704 221.2637 0418624 120.9413 243.3562 13.34111165602563"}}, "geometry": {"type": "Point", "coordinates": [-110.15869606327831, -72.57558889283592]}}, {"type": "Feature", "properties": {"norad_id": 32323, "name": "FENGYUN 1C DEB", "group": "fengyun-1c-debris", "lat": 18.167527442235, "lon": 119.1696455411, "alt_km": 999.0940919073146, "timestamp": "2025-12-04T05:42:43.659214+00:00", "meta": {"OBJECT_NAME": "FENGYUN 1C DEB", "OBJECT_ID": "1999-025CXQ", "EPOCH": "2025-11-27T08:31:37.777440", "MEAN_MOTION": 13.96310713, "ECCENTRICITY": 0.01563544, "INCLINATION": 98.5696, "RA_OF_ASC_NODE": 115.5941, "ARG_OF_PERICENTER": 252.8199, "MEAN_ANOMALY": 105.5797, "EPHEMERIS_TYPE": 0, "CLASSIFICATION_TYPE": "U", "NORAD_CAT_ID": 32323, "ELEMENT_SET_NO": 999, "REV_AT_EPOCH": 60055, "BSTAR": 0.00293216, "MEAN_MOTION_DOT": 4.437e-05, "MEAN_MOTION_DDOT": 0}, "tle": {"line1": "1 32323U 99025CXQ 25331.35529835  .00004437  00000+0  29322-2 0  9999", "line2": "2 32323  98.5696 115.5941 0156354 252.8199 105.5797 13.96310713600558"}}, "geometry": {"type": "Point", "coordinates": [119.1696455411, 18.167527442235]}}, {"type": "Feature", "properties": {"norad_id": 32324, "name": "FENGYUN 1C DEB", "group": "fengyun-1c-debris", "lat": 9.338360842796073, "lon": -98.91445185073148, "alt_km": 883.5877242352353, "timestamp": "2025-12-04T05:42:43.659224+00:00", "meta": {"OBJECT_NAME": "FENGYUN 1C DEB", "OBJECT_ID": "1999-025CXR", "EPOCH": "2025-12-01T05:20:15.314208", "MEAN_MOTION": 14.09115713, "ECCENTRICITY": 0.0050455, "INCLINATION": 99.5337, "RA_OF_ASC_NODE": 76.3137, "ARG_OF_PERICENTER": 55.9833, "MEAN_ANOMALY": 304.6112, "EPHEMERIS_TYPE": 0, "CLASSIFICATION_TYPE": "U", "NORAD_CAT_ID": 32324, "ELEMENT_SET_NO": 999, "REV_AT_EPOCH": 63836, "BSTAR": 0.00061368, "MEAN_MOTION_DOT": 1.029e-05, "MEAN_MOTION_DDOT": 0}, "tle": {"line1": "1 32324U 99025CXR 25335.22239947  .00001029  00000+0  61368-3 0  9993", "line2": "2 32324  99.5337  76.3137 0050455  55.9833 304.6112 14.09115713638366"}}, "geometry": {"type": "Point", "coordinates": [-98.91445185073148, 9.338360842796073]}}, {"type": "Feature", "properties": {"norad_id": 32326, "name": "FENGYUN 1C DEB", "group": "fengyun-1c-debris", "lat": -20.33039481399891, "lon": 85.42592191228843, "alt_km": 780.3301279542848, "timestamp": "2025-12-04T05:42:43.659235+00:00", "meta": {"OBJECT_NAME": "FENGYUN 1C DEB", "OBJECT_ID": "1999-025CXT", "EPOCH": "2025-11-30T02:32:37.979232", "MEAN_MOTION": 13.69261307, "ECCENTRICITY": 0.03856265, "INCLINATION": 98.486, "RA_OF_ASC_NODE": 264.9459, "ARG_OF_PERICENTER": 173.0082, "MEAN_ANOMALY": 187.6669, "EPHEMERIS_TYPE": 0, "CLASSIFICATION_TYPE": "U", "NORAD_CAT_ID": 32326, "ELEMENT_SET_NO": 999, "REV_AT_EPOCH": 63009, "BSTAR": 0.00044957354, "MEAN_MOTION_DOT": 6.22e-06, "MEAN_MOTION_DDOT": 0}, "tle": {"line1": "1 32326U 99025CXT 25334.10599513  .00000622  00000+0  44957-3 0  9992", "line2": "2 32326  98.4860 264.9459 0385626 173.0082 187.6669 13.69261307630092"}}, "geometry": {"type": "Point", "coordinates": [85.42592191228843, -20.33039481399891]}}, {"type": "Feature", "properties": {"norad_id": 32331, "name": "FENGYUN 1C DEB", "group": "fengyun-1c-debris", "lat": 45.52212333362001, "lon": -64.75651786229554, "alt_km": 656.5034216132253, "timestamp": "2025-12-04T05:42:43.659245+00:00", "meta": {"OBJECT_NAME": "FENGYUN 1C DEB", "OBJECT_ID": "1999-025CXY", "EPOCH": "2025-11-11T08:35:02.141088", "MEAN_MOTION": 14.68670701, "ECCENTRICITY": 0.0013407, "INCLINATION": 99.1837, "RA_OF_ASC_NODE": 279.0061, "ARG_OF_PERICENTER": 226.0291, "MEAN_ANOMALY": 133.9806, "EPHEMERIS_TYPE": 0, "CLASSIFICATION_TYPE": "U", "NORAD_CAT_ID": 32331, "ELEMENT_SET_NO": 999, "REV_AT_EPOCH": 60157, "BSTAR": 0.0092524, "MEAN_MOTION_DOT": 0.0005428, "MEAN_MOTION_DDOT": 0}, "tle": {"line1": "1 32331U 99025CXY 25315.35766367  .00054280  00000+0  92524-2 0  9998", "line2": "2 32331  99.1837 279.0061 0013407 226.0291 133.9806 14.68670701601572"}}, "geometry": {"type": "Point", "coordinates": [-64.75651786229554, 45.52212333362001]}}, {"type": "Feature", "properties": {"norad_id": 32332, "name": "FENGYUN 1C DEB", "group": "fengyun-1c-debris", "lat": 20.590079103488318, "lon": -144.20586960584538, "alt_km": 1111.1810318830221, "timestamp": "2025-12-04T05:42:43.659255+00:00", "meta": {"OBJECT_NAME": "FENGYUN 1C DEB", "OBJECT_ID": "1999-025CXZ", "EPOCH": "2025-11-29T21:49:05.913408", "MEAN_MOTION": 13.97030722, "ECCENTRICITY": 0.02850137, "INCLINATION": 99.1337, "RA_OF_ASC_NODE": 28.0232, "ARG_OF_PERICENTER": 348.1334, "MEAN_ANOMALY": 11.3206, "EPHEMERIS_TYPE": 0, "CLASSIFICATION_TYPE": "U", "NORAD_CAT_ID": 32332, "ELEMENT_SET_NO": 999, "REV_AT_EPOCH": 92857, "BSTAR": 0.0013397754, "MEAN_MOTION_DOT": 2.591e-05, "MEAN_MOTION_DDOT": 0}, "tle": {"line1": "1 32332U 99025CXZ 25333.90909622  .00002591  00000+0  13398-2 0  9993", "line2": "2 32332  99.1337  28.0232 0285013 348.1334  11.3206 13.97030722928577"}}, "geometry": {"type": "Point", "coordinates": [-144.20586960584538, 20.590079103488318]}}, {"type": "Feature", "properties": {"norad_id": 32334, "name": "FENGYUN 1C DEB", "group": "fengyun-1c-debris", "lat": -31.786001000064893, "lon": -153.26964087298052, "alt_km": 896.165679398674, "timestamp": "2025-12-04T05:42:43.659285+00:00", "meta": {"OBJECT_NAME": "FENGYUN 1C DEB", "OBJECT_ID": "1999-025CYB", "EPOCH": "2025-12-02T03:00:46.825344", "MEAN_MOTION": 14.01624263, "ECCENTRICITY": 0.00664079, "INCLINATION": 99.2542, "RA_OF_ASC_NODE": 30.3872, "ARG_OF_PERICENTER": 310.7393, "MEAN_ANOMALY": 48.8018, "EPHEMERIS_TYPE": 0, "CLASSIFICATION_TYPE": "U", "NORAD_CAT_ID": 32334, "ELEMENT_SET_NO": 999, "REV_AT_EPOCH": 93791, "BSTAR": 0.00038671814, "MEAN_MOTION_DOT": 5.5e-06, "MEAN_MOTION_DDOT": 0}, "tle": {"line1": "1 32334U 99025CYB 25336.12554196  .00000550  00000+0  38672-3 0  9990", "line2": "2 32334  99.2542  30.3872 0066407 310.7393  48.8018 14.01624263937917"}}, "geometry": {"type": "Point", "coordinates": [-153.26964087298052, -31.786001000064893]}}, {"type": "Feature", "properties": {"norad_id": 32340, "name": "FENGYUN 1C DEB", "group": "fengyun-1c-debris", "lat": 59.632083254451345, "lon": -32.53353941479403, "alt_km": 646.1032647143811, "timestamp": "2025-12-04T05:42:43.659297+00:00", "meta": {"OBJECT_NAME": "FENGYUN 1C DEB", "OBJECT_ID": "1999-025CYH", "EPOCH": "2025-12-03T11:31:05.163168", "MEAN_MOTION": 14.74095933, "ECCENTRICITY": 0.00348923, "INCLINATION": 98.9809, "RA_OF_ASC_NODE": 342.2859, "ARG_OF_PERICENTER": 323.7129, "MEAN_ANOMALY": 36.171, "EPHEMERIS_TYPE": 0, "CLASSIFICATION_TYPE": "U", "NORAD_CAT_ID": 32340, "ELEMENT_SET_NO": 999, "REV_AT_EPOCH": 97060, "BSTAR": 0.0034692662, "MEAN_MOTION_DOT": 0.00023088, "MEAN_MOTION_DDOT": 0}, "tle": {"line1": "1 32340U 99025CYH 25337.47992087  .00023088  00000+0  34693-2 0  9990", "line2": "2 32340  98.9809 342.2859 0034892 323.7129  36.1710 14.74095933970608"}}, "geometry": {"type": "Point", "coordinates": [-32.53353941479403, 59.632083254451345]}}, {"type": "Feature", "properties": {"norad_id": 32342, "name": "FENGYUN 1C DEB", "group": "fengyun-1c-debris", "lat": -29.858669972667162, "lon": 162.081790304665, "alt_km": 859.2514641952966, "timestamp": "2025-12-04T05:42:43.659307+00:00", "meta": {"OBJECT_NAME": "FENGYUN 1C DEB", "OBJECT_ID": "1999-025CYK", "EPOCH": "2025-12-03T12:27:22.067424", "MEAN_MOTION": 14.13392665, "ECCENTRICITY": 0.0007994, "INCLINATION": 98.6706, "RA_OF_ASC_NODE": 346.4105, "ARG_OF_PERICENTER": 17.5352, "MEAN_ANOMALY": 136.247, "EPHEMERIS_TYPE": 0, "CLASSIFICATION_TYPE": "U", "NORAD_CAT_ID": 32342, "ELEMENT_SET_NO": 999, "REV_AT_EPOCH": 93587, "BSTAR": 0.00015106646, "MEAN_MOTION_DOT": 2.41e-06, "MEAN_MOTION_DDOT": 0}, "tle": {"line1": "1 32342U 99025CYK 25337.51900541  .00000241  00000+0  15107-3 0  9997", "line2": "2 32342  98.6706 346.4105 0007994  17.5352 136.2470 14.13392665935872"}}, "geometry": {"type": "Point", "coordinates": [162.081790304665, -29.858669972667162]}}]}